P/2022 O2 (PANSTARRS),e,9.4218,330.4925,48.6494,6.305624,0.0622461,0.72120079,39.2798,09/29.0/2024,2000,g 16.2,4.0
# From MPEC 2023-N01
C/2022 P1 (NEOWISE),e,154.5991,205.0796,249.9215,18.48534,0.0124012,0.91376324,8.3136,09/29.0/2024,2000,g 13.0,4.0
# From MPEC 2023-XP6
P/2022 P2 (ZTF),e,12.4400,291.1897,137.7191,4.489998,0.1035941,0.55816588,84.0127,09/29.0/2024,2000,g 12.5,4.0
# From MPEC 2023-HD1
C/2022 P3 (ZTF),e,59.5178,72.2155,0.1755,256.9741,0.0002393,0.99002260,0.0000,07/27.4962/2022,2000,g  9.0,4.0
# From MPEC 2023-R20
C/2022 Q2 (ATLAS),e,151.4740,352.9564,44.0615,32.85232,0.0052343,0.94998044,3.1737,09/29.0/2024,2000,g 13.0,4.0
# From MPEC 2024-RQ6
C/2022 QE78 (ATLAS),h,09/10.5348/2025,36.5631,119.9216,0.4408,1.004306,5.478025,2000,5.0,4.0
# From MPEC 2024-M41
P/2022 R1 (PANSTARRS),e,7.3715,175.7852,221.9176,7.178608,0.0512441,0.50278092,18.4017,09/29.0/2024,2000,g 11.5,4.0
# From MPEC 2022-Y15
C/2022 R2 (ATLAS),e,52.9066,60.4117,78.3277,426.8307,0.0001118,0.99852131,0.0000,10/25.3671/2022,2000,g 17.0,4.0
# From MPEC 2024-LE0
C/2022 R3 (Leonard),h,03/05.7253/2023,43.0794,8.2494,72.9083,1.001392,5.130358,2000,9.0,4.0
# From MPEC 2022-X67
P/2022 R4 (PANSTARRS),e,21.0159,176.6331,197.4835,3.837736,0.1310966,0.48979421,106.4213,09/29.0/2024,2000,g 16.5,4.0
# From MPEC 2022-WQ9
P/2022 R5 (PANSTARRS),e,15.2932,115.0479,240.5606,3.069142,0.1833068,0.19502380,156.9144,09/29.0/2024,2000,g 16.0,4.0
# From MPEC 2024-RQ6
C/2022 R6 (PANSTARRS),h,08/25.7428/2025,57.0200,150.7830,319.8767,1.004806,6.566220,2000,5.0,4.0
# From MPEC 2023-HD1
P/2022 S1 (PANSTARRS),e,34.5731,136.0932,262.8202,6.408777,0.0607493,0.50790555,46.8839,09/29.0/2024,2000,g 15.1,4.0
# From MPEC 2022-VC5
C/2022 S3 (PANSTARRS),h,01/21.6920/2023,78.5142,157.2904,267.9704,1.000400,0.838337,2000,17.0,4.0
# From MPEC 2024-PC5
C/2022 S4 (Lemmon),e,101.2206,220.1748,268.5572,1248,0.0000224,0.99778685,0.0000,07/18.7548/2024,2000,g  8.0,4.0
# From MPEC 2023-HD1
C/2022 S5 (PANSTARRS),e,136.5266,214.8624,232.8097,20.50035,0.0106185,0.89370712,7.1289,09/29.0/2024,2000,g 16.3,4.0
# From MPEC 2024-O39
C/2022 T1 (Lemmon),h,02/17.4381/2024,22.5440,236.9185,324.3000,1.000138,3.444777,2000,9.0,4.0
# From MPEC 2024-RQ6
C/2022 U1 (Leonard),e,128.1494,72.5259,78.5987,11342,0.0000008,0.99962952,0.0000,03/25.9664/2024,2000,g  8.5,4.0
# From MPEC 2023-VM5
C/2022 U2 (ATLAS),e,48.2458,304.4342,147.9604,97.37802,0.0010257,0.98635706,0.0000,01/14.2626/2023,2000,g 16.0,4.0
# From MPEC 2024-GJ3
C/2022 U3 (Bok),h,07/28.5695/2024,33.6592,272.7857,189.1132,1.001427,4.826396,2000,7.5,4.0
# From MPEC 2023-W26
C/2022 U4 (Bok),e,52.0436,132.9166,88.9998,2826,0.0000066,0.99897446,0.0000,08/03.6311/2023,2000,g 10.5,4.0
# From MPEC 2024-H50
C/2022 V2 (Lemmon),e,98.9017,332.8674,168.9503,36.72857,0.0044279,0.94381199,1.4705,09/29.0/2024,2000,g 12.0,4.0
# From MPEC 2023-CD7
P/2022 W1 (Rankin),e,13.4656,38.8200,17.8854,6.972708,0.0535306,0.51663311,39.8210,09/29.0/2024,2000,g 12.5,4.0
# From MPEC 2024-EF7
C/2022 W2 (ATLAS),e,63.5141,320.4468,123.2896,343.7428,0.0001547,0.99091305,0.0000,03/08.7731/2023,2000,g 11.5,4.0
# From MPEC 2024-C04
C/2022 W3 (Leonard),e,103.5699,132.2814,116.5241,278.6569,0.0002119,0.99498427,0.0000,06/22.7750/2023,2000,g 13.0,4.0
# From MPEC 2023-M14
C/2022 Y1 (Hogan),e,18.8551,285.8886,174.8242,12.59579,0.0220478,0.76509011,14.8048,09/29.0/2024,2000,g  9.0,4.0
# From MPEC 2023-TM6
C/2022 Y2 (Lemmon),e,165.8836,216.3488,105.4115,19.70113,0.0112711,0.87106547,6.2734,09/29.0/2024,2000,g 13.5,4.0
# From MPEC 2024-GJ3
C/2023 A1 (Leonard),e,94.7380,318.2895,159.2479,221.7291,0.0002985,0.99172397,0.0000,03/18.6624/2023,2000,g 14.5,4.0
# From MPEC 2023-J95
C/2023 A2 (SWAN),e,94.7086,94.4971,142.5317,427.9199,0.0001113,0.99778845,0.0000,01/20.3633/2023,2000,g 13.5,4.0
# From MPEC 2024-R10
C/2023 A3 (Tsuchinshan-ATLAS),h,09/27.7409/2024,139.1105,21.5595,308.4937,1.000093,0.391411,2000,6.5,3.2
# From MPEC 2024-F34
P/2023 B1 (PANSTARRS),e,14.5885,78.5597,81.5792,7.060770,0.0525322,0.13037654,27.1207,09/29.0/2024,2000,g  5.5,4.0
# From MPEC 2023-XP6
C/2023 B2 (ATLAS),e,40.7696,218.1133,317.3673,591.8413,0.0000685,0.99705688,0.0000,03/10.5092/2023,2000,g 14.5,4.0
# From MPEC 2023-F81
P/2023 B3 (PANSTARRS),e,9.1584,153.9978,240.2794,4.548382,0.1016058,0.12280724,150.7832,09/29.0/2024,2000,g 10.5,4.0
# From MPEC 2024-RQ6
C/2023 C2 (ATLAS),e,48.3192,301.0044,357.4579,2995,0.0000060,0.99920923,0.0000,11/16.8134/2024,2000,g  7.0,4.0
# From MPEC 2024-D33
C/2023 E1 (ATLAS),e,38.2828,164.5225,105.9625,19.32966,0.0115976,0.94684495,5.2882,09/29.0/2024,2000,g 15.5,4.0
# From MPEC 2023-N01
C/2023 F1 (PANSTARRS),e,131.7096,25.2956,216.7410,262.8549,0.0002313,0.99349478,0.0000,06/28.3258/2023,2000,g 16.0,4.0
# From MPEC 2024-R10
C/2023 F3 (ATLAS),h,02/02.6656/2025,145.9632,109.4593,265.5321,1.004084,5.190762,2000,6.0,4.0
# From MPEC 2024-RQ6
C/2023 H1 (PANSTARRS),e,21.7807,292.6489,333.7669,773.9325,0.0000458,0.99425303,0.0000,11/28.7550/2024,2000,g  8.5,4.0
# From MPEC 2024-GJ3
C/2023 H2 (Lemmon),e,113.7534,217.0492,150.6570,243.6397,0.0002592,0.99632797,0.0000,10/29.1742/2023,2000,g 14.0,4.0
# From MPEC 2023-R20
C/2023 H3 (PANSTARRS),e,2.4892,55.0978,193.2955,13.62063,0.0196069,0.61583534,4.3785,09/29.0/2024,2000,g 10.0,4.0
# From MPEC 2023-SQ0
A/2023 H4,e,76.6035,230.8197,64.9874,145.7459,0.0005602,0.98544124,0.0000,08/08.9269/2023,2000,g 18.0,22.0
# From MPEC 2024-MB8
C/2023 H5 (Lemmon),h,06/30.1797/2025,97.8598,159.4815,60.0833,1.000380,4.312838,2000,7.0,4.0
# From MPEC 2024-RQ6
P/2023 JN16 (Lemmon),e,3.7025,11.8763,353.1325,2.695464,0.2227172,0.14681751,339.3907,09/29.0/2024,2000,g 14.0,4.0
# From MPEC 2024-GJ3
C/2023 K1 (ATLAS),e,137.9980,223.7040,337.4443,694.8659,0.0000538,0.99706551,0.0000,09/07.6914/2023,2000,g 13.0,4.0
# From MPEC 2023-N01
P/2023 M1 (PANSTARRS),e,12.2886,216.8605,79.6945,6.844553,0.0550410,0.58708907,15.9402,09/29.0/2024,2000,g 13.5,4.0
# From MPEC 2024-BE0
P/2023 M2 (PANSTARRS),e,19.7271,83.2519,243.1812,5.570290,0.0749700,0.36986218,32.3019,09/29.0/2024,2000,g 12.5,4.0
# From MPEC 2024-RQ6
P/2023 M4 (ATLAS),e,7.5922,296.2919,320.6238,5.449593,0.0774743,0.27899451,69.6152,09/29.0/2024,2000,g  7.5,4.0
# From MPEC 2024-MB8
C/2023 P1 (Nishimura),e,132.4769,66.8425,116.2851,56.83217,0.0023004,0.99604334,0.0000,09/17.6454/2023,2000,g 10.0,4.0
# From MPEC 2024-RQ6
C/2023 Q1 (PANSTARRS),h,12/01.1428/2024,36.6439,7.1372,84.4093,1.005344,2.575708,2000,10.0,4.0
# From MPEC 2024-N80
C/2023 Q2 (PANSTARRS),e,104.0601,92.6788,171.7107,351.4126,0.0001496,0.99086677,0.0000,06/24.0275/2024,2000,g 11.5,4.0
# From MPEC 2024-RQ6
C/2023 R1 (PANSTARRS),h,04/13.6380/2026,149.3162,62.5543,144.2895,1.001722,3.569270,2000,6.0,4.0
# From MPEC 2024-L77
C/2023 R2 (PANSTARRS),h,08/12.1479/2024,30.6893,188.9123,337.3042,1.000222,0.905196,2000,10.5,4.0
# From MPEC 2023-UR6
A/2023 R3,e,12.0852,347.3507,86.9056,676.4511,0.0000560,0.99799277,0.0000,12/18.1888/2023,2000,g 20.0,22.0
# From MPEC 2024-Q20
C/2023 RN3 (ATLAS),e,10.3544,207.0685,130.5128,10.17059,0.0303868,0.49101592,18.7796,09/29.0/2024,2000,g  7.5,4.0
# From MPEC 2024-RQ6
P/2023 S1,e,9.1555,317.2959,180.2635,3.846580,0.1306448,0.31893787,340.6606,09/29.0/2024,2000,g 11.5,4.0
# From MPEC 2023-XP6
C/2023 S2 (ATLAS),e,20.3494,230.4291,78.2051,212.4851,0.0003182,0.99499346,0.0000,10/16.0098/2023,2000,g 15.0,4.0
# From MPEC 2024-P23
C/2023 S3 (Lemmon),e,140.4976,233.8331,281.5649,28.48415,0.0064833,0.97086111,0.0000,01/19.6302/2024,2000,g 16.0,4.0
# From MPEC 2024-BE0
P/2023 T1 (PANSTARRS),e,6.6124,249.5768,202.8513,4.226774,0.1134202,0.33346482,14.6481,09/29.0/2024,2000,g 14.0,4.0
# From MPEC 2024-GJ3
C/2023 T2 (Borisov),e,48.5971,317.5319,111.1994,226.1507,0.0002898,0.99117581,0.0000,12/22.7882/2023,2000,g 14.5,4.0
# From MPEC 2024-M41
C/2023 T3 (Fuls),e,27.2220,246.0005,302.8467,759.6526,0.0000471,0.99532898,0.0000,01/25.3479/2025,2000,g  8.5,4.0
# From MPEC 2024-RQ6
C/2023 TD22 (Lemmon),e,170.4897,5.5561,32.5343,48.13149,0.0029516,0.95103397,0.0375,09/29.0/2024,2000,g 12.5,4.0
# From MPEC 2024-RQ6
C/2023 U1 (Fuls),e,108.1458,305.8085,255.6218,2269,0.0000091,0.99780832,0.0000,10/12.7232/2024,2000,g  8.0,4.0
# From MPEC 2024-RQ6
C/2023 V1 (Lemmon),h,07/13.0538/2025,102.0128,15.0320,103.3123,1.000051,5.092592,2000,8.5,4.0
# From MPEC 2024-D33
P/2023 V2 (PANSTARRS),e,9.8880,95.4725,330.5443,7.229897,0.0506998,0.57065117,12.0728,09/29.0/2024,2000,g 13.5,4.0
# From MPEC 2024-A43
C/2023 V3 (PANSTARRS),e,40.3977,91.3643,291.7758,13.28005,0.0203659,0.66307376,8.5270,09/29.0/2024,2000,g 11.5,4.0
# From MPEC 2024-RQ6
C/2023 V4 (Camarasa-Duszanowicz),h,05/30.3669/2024,67.1301,66.3259,50.8574,1.000993,1.121731,2000,12.0,4.0
# From MPEC 2024-GJ3
C/2023 V5 (Leonard),h,12/13.8779/2023,73.5744,31.5200,56.9608,1.009349,0.846255,2000,21.5,4.0
# From MPEC 2024-AF0
P/2023 V6 (PANSTARRS),e,3.9741,189.8955,193.1722,5.313814,0.0804627,0.17619931,53.0501,09/29.0/2024,2000,g 11.5,4.0
# From MPEC 2024-GJ3
C/2023 X1 (Leonard),e,110.5872,137.0109,321.4669,158.1369,0.0004956,0.99398905,0.0000,10/18.0602/2023,2000,g 13.5,3.2
# From MPEC 2024-RQ6
C/2023 X2 (Lemmon),h,12/27.0205/2025,77.0020,66.3130,64.6214,1.001485,5.092887,2000,8.5,3.2
# From MPEC 2024-A43
P/2023 X3 (PANSTARRS),e,4.4834,62.0122,40.8258,4.245489,0.1126711,0.28625763,18.0301,09/29.0/2024,2000,g 15.5,4.0
# From MPEC 2024-JU4
C/2023 X4 (Hogan),e,11.5947,28.7662,100.5527,9.912428,0.0315816,0.63096143,4.0164,09/29.0/2024,2000,g 12.0,4.0
# From MPEC 2024-DA2
C/2023 X7 (PANSTARRS),h,05/14.9430/2025,69.0570,119.2066,354.3584,1.002504,4.820715,2000,9.0,4.0
# From MPEC 2024-JU4
P/2023 Y1 (Gibbs),e,6.3841,78.8559,51.4510,3.749092,0.1357735,0.44522947,41.3013,09/29.0/2024,2000,g 17.0,4.0
# From MPEC 2024-F34
P/2023 Y2 (Gibbs),e,6.9928,79.2282,16.8498,3.745732,0.1359562,0.39226782,56.5614,09/29.0/2024,2000,g 15.5,4.0
# From MPEC 2024-RQ6
C/2024 A1 (ATLAS),h,06/13.7040/2025,94.4465,112.1413,353.3055,1.001413,3.875523,2000,7.0,4.0
# From MPEC 2024-RQ6
